[{"OBJECT_NAME":"JILIN-1 GAOFEN 03D53","OBJECT_ID":"2022-155C","EPOCH":"2026-03-09T21:59:34.489824","MEAN_MOTION":15.46744133,"ECCENTRICITY":0.00055317,"INCLINATION":97.6077,"RA_OF_ASC_NODE":203.8168,"ARG_OF_PERICENTER":17.7738,"MEAN_ANOMALY":342.3704,"EPHEMERIS_TYPE":0,"CLASSIFICATION_TYPE":"U","NORAD_CAT_ID":54253,"ELEMENT_SET_NO":999,"REV_AT_EPOCH":18411,"BSTAR":0.00074680835,"MEAN_MOTION_DOT":0.00037423,"MEAN_MOTION_DDOT":0},{"OBJECT_NAME":"BANDWAGON-2 OBJECT V","OBJECT_ID":"2024-247V","EPOCH":"2026-03-09T10:44:24.989280","MEAN_MOTION":15.44431692,"ECCENTRICITY":0.00083159,"INCLINATION":44.9939,"RA_OF_ASC_NODE":91.7715,"ARG_OF_PERICENTER":16.2729,"MEAN_ANOMALY":343.8426,"EPHEMERIS_TYPE":0,"CLASSIFICATION_TYPE":"U","NORAD_CAT_ID":62396,"ELEMENT_SET_NO":999,"REV_AT_EPOCH":6801,"BSTAR":0.0008906217,"MEAN_MOTION_DOT":0.00042031,"MEAN_MOTION_DDOT":0}]
